OBJECT_NAME,OBJECT_ID,EPOCH,MEAN_MOTION,ECCENTRICITY,INCLINATION,RA_OF_ASC_NODE,ARG_OF_PERICENTER,MEAN_ANOMALY,EPHEMERIS_TYPE,CLASSIFICATION_TYPE,NORAD_CAT_ID,ELEMENT_SET_NO,REV_AT_EPOCH,BSTAR,MEAN_MOTION_DOT,MEAN_MOTION_DDOT
NAVSTAR 71 (USA 256),2014-045A,2026-06-09T01:49:25.626720,2.00557855,.00329614,55.3481,88.7881,118.3556,241.9707,0,U,40105,999,8591,0,0,0
ASIASAT 8 (AMOS-7),2014-046A,2026-06-10T06:56:49.564320,1.00270118,.00013928,0.0191,326.0900,116.1457,25.9473,0,U,40107,999,10208,0,-.315E-5,0
YAOGAN-20 01A,2014-047A,2026-06-10T07:11:57.543648,13.45442693,.03895978,63.3802,36.9054,14.6492,346.5452,0,U,40109,999,58151,.18516077E-3,.83E-6,0
YAOGAN-20 01B,2014-047B,2026-06-10T07:14:21.077376,13.45440613,.03894116,63.3802,37.7794,14.6715,346.5240,0,U,40110,999,58135,.17728154E-3,.75E-6,0
YAOGAN-20 01C,2014-047C,2026-06-10T07:00:49.524768,13.45450484,.03895082,63.3793,37.4840,15.0619,346.1625,0,U,40111,999,58136,.16788237E-3,.67E-6,0
WORLDVIEW-3 (WV-3),2014-048A,2026-06-10T05:27:07.141536,14.85010443,.0001523,97.8566,236.1560,36.5191,323.6128,0,U,40115,999,64087,.87578914E-4,.694E-5,0
GAOFEN-2,2014-049A,2026-06-10T06:49:34.915296,14.80892880,.00058844,98.0109,225.4980,254.2856,105.7707,0,U,40118,999,63821,.11146751E-3,.808E-5,0
BRITE-PL2 (HEWELIUSZ),2014-049B,2026-06-09T19:23:21.725376,14.94571041,.00151621,97.9090,272.7516,130.3835,229.8711,0,U,40119,999,64034,.16872442E-3,.1769E-4,0
GSAT0201 (GALILEO 5),2014-050A,2026-06-09T07:58:17.347008,1.85520027,.16733008,48.8841,273.7586,179.0833,181.3092,0,U,40128,999,7817,0,-.53E-6,0
GSAT0202 (GALILEO 6),2014-050B,2026-06-09T14:06:18.101664,1.85520607,.16746766,48.9007,272.8335,179.8278,180.2807,0,U,40129,999,8034,0,-.52E-6,0
LING QIAO,2014-051A,2026-06-10T06:31:21.247680,14.30269152,.00204333,98.7059,163.0609,190.3728,169.7035,0,U,40136,999,61401,-.4353034E-5,-.56E-6,0
CHUANGXIN 1-04 (CX-1-04),2014-051B,2026-06-10T07:19:20.229600,14.30409116,.00218886,98.7059,163.1371,191.4513,168.6174,0,U,40137,999,61356,.3465984E-4,.46E-6,0
ASIASAT 6,2014-052A,2026-06-10T07:01:04.155744,1.00268060,.00006595,0.0208,358.6009,107.6957,17.5347,0,U,40141,999,4301,0,0,0
YAOGAN-21,2014-053A,2026-06-10T06:41:36.343104,15.26270763,.00098898,97.1483,201.8119,113.2840,246.9442,0,U,40143,999,65390,.25212334E-3,.6475E-4,0
OPTUS 10,2014-054A,2026-06-10T05:08:38.959584,1.00271517,.00020338,0.0944,313.3059,122.6678,55.7612,0,U,40146,999,4296,0,-.13E-5,0
MEASAT-3B,2014-054B,2026-06-10T03:27:34.777728,1.00272046,.00031367,0.0501,49.6371,20.0128,332.2518,0,U,40147,999,4283,0,-.224E-5,0
SJ-11-07,2014-059A,2026-06-10T07:57:48.804768,14.63732040,.00108954,97.9939,230.8291,164.3718,195.7823,0,U,40261,999,62391,.89198867E-4,.419E-5,0
HIMAWARI-8,2014-060A,2026-06-10T07:06:56.094048,1.00270289,.00007848,0.0125,307.6044,159.2350,39.2194,0,U,40267,999,4269,0,-.258E-5,0
IRNSS-1C,2014-061A,2026-06-09T20:44:18.677184,1.00270488,.00226667,6.4999,89.0676,1.6012,201.6559,0,U,40269,999,4261,0,-.145E-5,0
INTELSAT 30 (IS-30),2014-062A,2026-06-10T00:51:42.732864,1.00267059,.00008212,0.0228,41.0330,352.5032,142.6782,0,U,40271,999,672,0,-.132E-5,0
ARSAT 1,2014-062B,2026-06-10T06:06:20.122848,1.00269454,.00016855,0.0153,12.0912,65.2019,201.0963,0,U,40272,999,4255,0,-.242E-5,0
YAOGAN-22,2014-063A,2026-06-10T04:32:08.804256,13.15531010,.00061807,100.7715,312.3462,201.1384,158.9472,0,U,40275,999,55889,.30481888E-4,-.35E-6,0
EUTELSAT 53A,2014-064A,2026-06-09T05:02:06.817632,1.00270479,.0000791,0.0145,284.0351,258.5594,203.5265,0,U,40277,999,4148,0,.115E-5,0
SJ-11-08,2014-066A,2026-06-10T07:02:49.248384,14.66163167,.00107662,98.3512,306.0298,252.1384,107.8645,0,U,40286,999,62020,.63109533E-4,.296E-5,0
NAVSTAR 72 (USA 258),2014-068A,2026-06-09T10:40:59.117088,2.00575640,.00668778,56.9823,31.2530,70.2914,290.4821,0,U,40294,999,8505,0,-.64E-6,0
MERIDIAN 7,2014-069A,2026-06-09T05:00:17.062848,2.00592873,.66510737,63.4432,216.1124,270.6217,19.6865,0,U,40296,999,8507,0,.308E-5,0
ASNARO,2014-070A,2026-06-10T05:51:36.751104,15.19329871,.00049341,97.3449,237.5470,187.2363,172.8802,0,U,40298,999,64295,.28895102E-3,.604E-4,0
YAOGAN-24,2014-072A,2026-06-10T07:17:41.146080,14.76214486,.00126435,98.1478,298.5843,288.1852,71.7980,0,U,40310,999,62270,.95697718E-4,.609E-5,0
COSMOS 2501 [GLONASS-K],2014-075A,2026-06-09T07:45:34.785792,2.13101469,.00224736,63.6158,190.6443,212.2153,147.7161,0,U,40315,999,8968,0,.109E-5,0
GSAT-16,2014-078A,2026-06-10T04:59:55.226976,1.00272397,.00076714,0.0709,92.4348,353.3168,302.8783,0,U,40332,999,4203,0,.102E-5,0
DIRECTV 14,2014-078B,2026-06-09T01:17:09.208320,1.00271044,.00002356,0.0091,1.3268,206.1301,330.0282,0,U,40333,999,4196,0,-.109E-5,0
CBERS 4,2014-079A,2026-06-10T06:37:36.721344,14.35506943,.00019864,98.3533,218.3244,70.6743,289.4657,0,U,40336,999,60296,-.6083526E-5,-.6E-6,0
YAOGAN-25 01A,2014-080A,2026-06-10T07:04:11.704224,13.45412923,.03659602,63.3892,328.5428,9.1300,351.6145,0,U,40338,999,56473,.40795196E-4,-.54E-6,0
YAOGAN-25 01B,2014-080B,2026-06-10T06:47:09.365856,13.45434382,.03662572,63.3899,328.6981,8.9234,351.8070,0,U,40339,999,56470,.10887753E-3,.6E-7,0
YAOGAN-25 01C,2014-080C,2026-06-10T07:09:39.961152,13.45348399,.03661915,63.3884,329.0416,9.6004,351.1776,0,U,40340,999,56482,.40674852E-4,-.55E-6,0
YAMAL 401,2014-082A,2026-06-09T17:32:21.533856,1.00273523,.00005876,0.0122,251.8924,232.2841,126.9842,0,U,40345,999,4184,0,-.212E-5,0
O3B FM10,2014-083A,2026-06-10T03:55:02.713440,5.00115247,.00026848,0.0396,329.3529,109.5987,281.0810,0,U,40348,999,20954,0,-.9E-7,0
O3B FM11,2014-083B,2026-06-07T23:26:59.991936,5.00115581,.00027314,0.0559,355.3693,66.1211,298.5389,0,U,40349,999,20945,0,-.11E-6,0
O3B FM12,2014-083C,2026-06-10T04:52:10.562592,5.00115928,.00025418,0.0549,355.0669,80.4187,284.5450,0,U,40350,999,20956,0,-.9E-7,0
O3B FM9,2014-083D,2026-06-10T00:42:58.180320,5.00115969,.00027067,0.0569,354.4670,83.3881,282.1776,0,U,40351,999,20971,0,-.9E-7,0
COSMOS 2502,2014-086A,2026-06-10T06:34:28.369344,13.97821963,.00082876,67.1542,24.0872,260.2714,99.7435,0,U,40358,999,58298,-.32236113E-4,-.121E-5,0
YAOGAN-26,2014-088A,2026-06-10T06:40:22.026144,15.47077309,.00064912,97.0646,161.6501,82.8306,277.3683,0,U,40362,999,63663,.52620778E-3,.26621E-3,0
ASTRA 2G,2014-089A,2026-06-10T04:52:10.968672,1.00271651,.00048287,0.0525,19.0031,42.3125,298.4832,0,U,40364,999,4189,0,.167E-5,0
FENGYUN 2G,2014-090A,2026-06-09T20:00:10.522368,1.00276216,.00035152,5.6193,72.9049,153.2834,71.6860,0,U,40367,999,4192,0,-.287E-5,0
MUOS-3,2015-002A,2026-06-10T04:07:38.635680,1.00271937,.0051635,4.5080,43.4966,178.3921,83.1226,0,U,40374,999,4151,0,-.113E-5,0
SMAP,2015-003A,2026-06-10T05:48:49.955040,14.63360463,.00012798,98.1276,168.4352,93.8750,266.2598,0,U,40376,999,60660,.81422318E-4,.374E-5,0
INMARSAT 5-F2,2015-005A,2026-06-10T06:11:12.155712,1.00271089,.00005052,0.0182,351.2661,247.2364,57.9202,0,U,40384,999,4092,0,-.268E-5,0
COSMOS 2503,2015-009A,2026-06-10T03:46:52.921344,15.06576906,.00146467,97.8311,217.7564,276.2638,83.6920,0,U,40420,999,61787,.10209276E-3,.1448E-4,0
ABS-3A,2015-010A,2026-06-10T03:59:38.914368,1.00269951,.00018935,0.0057,21.9934,14.1874,279.2427,0,U,40424,999,4130,0,-.9E-7,0
EUTELSAT 115 WEST B,2015-010B,2026-06-08T23:06:14.007168,1.00271121,.00000972,0.0228,162.5014,167.0892,159.4034,0,U,40425,999,4131,0,-.8E-7,0
MMS 1,2015-011A,2026-06-10T08:00:01.999872,0.28331293,.83237477,72.0724,348.8741,167.3343,319.1217,0,U,40482,999,139,0,.1E-7,0
MMS 2,2015-011B,2026-06-10T08:00:01.999872,0.28331300,.83245321,72.0726,348.8762,167.3400,319.1101,0,U,40483,999,139,0,.2E-7,0
MMS 3,2015-011C,2026-06-10T08:00:01.999872,0.28331268,.83237171,72.0757,348.8808,167.3345,319.1063,0,U,40484,999,139,0,.2E-7,0
MMS 4,2015-011D,2026-06-10T08:00:01.999872,0.28331260,.83233235,72.0718,348.8765,167.3423,319.0946,0,U,40485,999,139,0,.2E-7,0
EXPRESS-AM7,2015-012A,2026-06-10T06:38:17.059776,1.00273640,.00031427,0.0142,304.5681,146.8216,306.8423,0,U,40505,999,4093,0,.168E-5,0
NAVSTAR 73 (USA 260),2015-013A,2026-06-09T14:00:04.889952,2.00551895,.01094014,53.1683,204.4923,40.1375,320.7446,0,U,40534,999,8167,0,.81E-6,0
KOMPSAT-3A,2015-014A,2026-06-10T06:52:54.894144,15.53678570,.00559611,97.6884,152.1456,199.5166,160.3945,0,U,40536,999,62074,.31233933E-3,.2128E-3,0
GSAT0203 (GALILEO 7),2015-017A,2026-06-08T09:56:18.112128,1.70476076,.00020951,56.7896,341.8347,280.5229,79.4690,0,U,40544,999,6905,0,-.63E-6,0
GSAT0204 (GALILEO 8),2015-017B,2026-06-09T20:13:58.530720,1.70475572,.00018782,56.7980,341.8144,250.6263,109.3692,0,U,40545,999,3212,0,-.63E-6,0
BEIDOU-3S IGSO-1S,2015-019A,2026-06-09T21:15:42.344928,1.00252007,.00386437,49.2105,295.5512,190.9335,182.7618,0,U,40549,999,4100,0,-.175E-5,0
GONETS-M 11,2015-020A,2026-06-10T05:55:03.648864,12.42876942,.00169167,82.4875,35.3165,20.3994,339.7758,0,U,40552,999,50787,.5960553E-4,.18E-6,0
GONETS-M 12,2015-020B,2026-06-10T07:12:54.781920,12.42891035,.00156664,82.4909,36.4050,5.7803,354.3455,0,U,40553,999,50787,.19555899E-3,.37E-6,0
GONETS-M 13,2015-020C,2026-06-10T06:34:33.580992,12.42870048,.00139887,82.4871,35.0386,351.4752,8.6088,0,U,40554,999,50784,.83770199E-4,.21E-6,0
COSMOS 2504,2015-020D,2026-06-10T06:40:41.990592,13.61382460,.06067084,82.5184,236.6359,293.1623,60.6723,0,U,40555,999,54925,.81843007E-4,.228E-5,0
THOR 7,2015-022A,2026-06-10T06:26:40.673184,1.00271350,.00025386,0.0357,125.2569,315.4142,273.9752,0,U,40613,999,4074,0,.9E-7,0
TURKMENALEM52E/MONACOSAT,2015-023A,2026-06-10T03:16:20.854272,1.00273471,.00028489,0.0124,36.7248,43.8342,279.0627,0,U,40617,999,4077,0,.121E-5,0
DIRECTV 15,2015-026A,2026-06-10T05:57:33.255648,1.00269531,.00006536,0.0184,3.7345,280.2777,321.1253,0,U,40663,999,4039,0,-.85E-6,0
SKY MEXICO-1,2015-026B,2026-06-10T04:21:42.039648,1.00270961,.0002102,0.0149,307.2100,150.5136,147.4526,0,U,40664,999,4038,0,-.217E-5,0
SENTINEL-2A,2015-028A,2026-06-10T06:59:54.322944,14.30821618,.00010698,98.5679,236.2409,89.1782,270.9523,0,U,40697,999,57274,.1831779E-5,-.39E-6,0
